[{"OBJECT_NAME":"STARLINK-5039","OBJECT_ID":"2023-094AF","EPOCH":"2026-03-09T22:00:01.999584","MEAN_MOTION":15.05792287,"ECCENTRICITY":7.583e-5,"INCLINATION":42.9999,"RA_OF_ASC_NODE":16.3753,"ARG_OF_PERICENTER":238.3271,"MEAN_ANOMALY":18.5973,"EPHEMERIS_TYPE":0,"CLASSIFICATION_TYPE":"U","NORAD_CAT_ID":57247,"ELEMENT_SET_NO":999,"REV_AT_EPOCH":577,"BSTAR":0.0020901308,"MEAN_MOTION_DOT":0.00030728,"MEAN_MOTION_DDOT":0},{"OBJECT_NAME":"YUNYAO-1 43","OBJECT_ID":"2025-059A","EPOCH":"2026-03-09T23:54:24.516576","MEAN_MOTION":15.10329109,"ECCENTRICITY":0.00157026,"INCLINATION":97.608,"RA_OF_ASC_NODE":250.9377,"ARG_OF_PERICENTER":132.1084,"MEAN_ANOMALY":228.1483,"EPHEMERIS_TYPE":0,"CLASSIFICATION_TYPE":"U","NORAD_CAT_ID":63344,"ELEMENT_SET_NO":999,"REV_AT_EPOCH":5332,"BSTAR":0.00032498885,"MEAN_MOTION_DOT":5.279e-5,"MEAN_MOTION_DDOT":0}]
